     2.11           N: GPS NAV DATA                         RINEX VERSION / TYPE
teqc  2018Dec12     gpsops              20220227 01:04:07UTCPGM / RUN BY / DATE
Linux 2.6.32-573.12.1.x86_64|x86_64|gcc -static|Linux 64|=+ COMMENT
CHPI                                    MARKER NAME         COMMENT
41609M003                               MARKER NUMBER       COMMENT
4164613.9484 -4162456.9866 -2445028.7316                    COMMENT
                                                            COMMENT
This data is provided as a public service by NASA/JPL.      COMMENT
No warranty is expressed or implied regarding suitability   COMMENT
for use.  For further information, contact:                 COMMENT
Dave Stowers, NASA/JPL m/s 238-600                          COMMENT
4800 Oak Grove Drive, Pasadena CA 91109 USA                 COMMENT
                                                            END OF HEADER
31 22  2 26 16  0  0.0-1.665162853897D-04-1.705302565824D-12 0.000000000000D+00
    8.200000000000D+01 9.343750000000D+00 5.104855494865D-09 2.373227666710D+00
    4.414469003677D-07 1.045772456564D-02 6.629154086113D-06 5.153685195923D+03
    5.760000000000D+05-2.346932888031D-07 1.114138690497D+00-1.676380634308D-08
    9.549985719352D-01 2.516875000000D+02 3.789457046097D-01-8.045692278235D-09
   -1.025042697143D-10 1.000000000000D+00 2.198000000000D+03 0.000000000000D+00
    2.000000000000D+00 0.000000000000D+00-1.350417733192D-08 8.200000000000D+01
    5.702220000000D+05 4.000000000000D+00
21 22  2 26 16  0  0.0 1.586531288922D-04 5.684341886081D-13 0.000000000000D+00
    3.500000000000D+01-1.534375000000D+01 4.677337687032D-09-4.233886043377D-01
   -8.065253496170D-07 2.457853802480D-02 1.678243279457D-06 5.153574714661D+03
    5.760000000000D+05-4.731118679047D-07-2.130344046181D+00-2.682209014893D-07
    9.594603769873D-01 3.507187500000D+02-9.974435147032D-01-8.787866049895D-09
    1.532206679701D-10 1.000000000000D+00 2.198000000000D+03 0.000000000000D+00
    2.000000000000D+00 0.000000000000D+00-1.024454832077D-08 3.500000000000D+01
    5.704260000000D+05 4.000000000000D+00
 1 22  2 26 16  0  0.0 4.218397662044D-04-9.322320693173D-12 0.000000000000D+00
    7.900000000000D+01-3.278125000000D+01 4.003738200338D-09-2.785231931792D+00
   -1.637265086174D-06 1.145112479571D-02 9.965151548386D-07 5.153668325424D+03
    5.760000000000D+05 1.862645149231D-08-2.039129377695D+00-5.029141902924D-08
    9.868665365296D-01 3.756562500000D+02 8.834813127257D-01-7.996761668650D-09
    7.393165097859D-11 1.000000000000D+00 2.198000000000D+03 0.000000000000D+00
    2.000000000000D+00 0.000000000000D+00 5.122274160385D-09 7.900000000000D+01
    5.746680000000D+05 4.000000000000D+00
 3 22  2 26 16  0  0.0-1.393109560013D-04-1.750777300913D-11 0.000000000000D+00
    1.050000000000D+02-1.401562500000D+02 3.964450849577D-09 2.350133083699D+00
   -7.148832082748D-06 3.892880864441D-03 8.201226592064D-06 5.153679481506D+03
    5.760000000000D+05 3.725290298462D-09-1.003759701546D+00-6.705522537231D-08
    9.725879235738D-01 2.272500000000D+02 9.535844889873D-01-7.809968173666D-09
    8.714648714384D-11 1.000000000000D+00 2.198000000000D+03 0.000000000000D+00
    2.000000000000D+00 0.000000000000D+00 1.862645149231D-09 1.050000000000D+02
    5.751120000000D+05 4.000000000000D+00
22 22  2 26 18  0  0.0 2.194792032242D-04 5.798028723802D-12 0.000000000000D+00
    5.400000000000D+01-2.500000000000D-01 4.606977613395D-09 3.160826591401D-01
   -1.210719347000D-07 1.296808163170D-02 9.758397936821D-06 5.153657958984D+03
    5.832000000000D+05-2.291053533554D-07 1.256309661540D-01 5.587935447693D-08
    9.617170188255D-01 1.943750000000D+02-1.871088817262D+00-8.114266563201D-09
    5.014494588113D-10 1.000000000000D+00 2.198000000000D+03 0.000000000000D+00
    2.000000000000D+00 0.000000000000D+00-9.778887033463D-09 5.400000000000D+01
    5.760180000000D+05 4.000000000000D+00
32 22  2 26 18  0  0.0-7.480662316084D-05-7.048583938740D-12 0.000000000000D+00
    6.200000000000D+01-1.050000000000D+01 4.553761111000D-09 1.109072950437D+00
   -6.239861249924D-07 5.682387156412D-03 1.026317477226D-05 5.153571706772D+03
    5.832000000000D+05-9.313225746155D-08 3.555354823942D-02 5.401670932770D-08
    9.584274061428D-01 1.783125000000D+02-2.334923447734D+00-7.978903781941D-09
    4.935919886590D-10 1.000000000000D+00 2.198000000000D+03 0.000000000000D+00
    2.000000000000D+00 0.000000000000D+00 4.656612873077D-10 6.200000000000D+01
    5.760180000000D+05 4.000000000000D+00
27 22  2 26 18  0  0.0 1.349844969809D-04 1.466560206609D-11 0.000000000000D+00
    5.600000000000D+01 1.073125000000D+02 4.190888853057D-09 4.849705285577D-01
    5.835667252541D-06 1.030371442903D-02 6.271526217461D-06 5.153653520584D+03
    5.832000000000D+05-1.117587089539D-08-3.099405863198D+00 1.937150955200D-07
    9.736132755409D-01 2.624375000000D+02 6.430610545998D-01-8.071764792832D-09
   -8.464638300447D-11 1.000000000000D+00 2.198000000000D+03 0.000000000000D+00
    2.800000000000D+00 0.000000000000D+00 1.396983861923D-09 5.600000000000D+01
    5.760180000000D+05 4.000000000000D+00
 8 22  2 26 18  0  0.0-5.773641169071D-05-1.477928890381D-12 0.000000000000D+00
    3.700000000000D+01 1.115000000000D+02 4.344466678761D-09 5.165530120035D-01
    5.852431058884D-06 7.345240563154D-03 6.278976798058D-06 5.153728570938D+03
    5.832000000000D+05 1.769512891769D-07-3.118914488747D+00 7.078051567078D-08
    9.649044817904D-01 2.552500000000D+02 1.143721291783D-01-8.121052560151D-09
   -4.321608583773D-11 1.000000000000D+00 2.198000000000D+03 0.000000000000D+00
    2.000000000000D+00 0.000000000000D+00 5.122274160385D-09 3.700000000000D+01
    5.760180000000D+05 4.000000000000D+00
21 22  2 26 18  0  0.0 1.586573198438D-04 5.684341886081D-13 0.000000000000D+00
    4.000000000000D+01-1.196875000000D+01 4.883060541929D-09 6.268643951211D-01
   -1.203268766403D-06 2.457810717169D-02 1.741573214531D-06 5.153573795319D+03
    5.832000000000D+05-4.470348358154D-08-2.130406862420D+00-4.488974809647D-07
    9.594599863882D-01 3.485312500000D+02-9.974537858510D-01-8.890727477343D-09
   -8.786080261224D-11 1.000000000000D+00 2.198000000000D+03 0.000000000000D+00
    2.000000000000D+00 0.000000000000D+00-1.024454832077D-08 4.000000000000D+01
    5.760180000000D+05 4.000000000000D+00
31 22  2 26 18  0  0.0-1.665288582444D-04-1.705302565824D-12 0.000000000000D+00
    8.400000000000D+01 1.059375000000D+01 5.104498337130D-09-2.859803831246D+00
    4.451721906662D-07 1.045686390717D-02 6.254762411118D-06 5.153686864853D+03
    5.832000000000D+05-1.974403858185D-07 1.114080622890D+00-1.862645149231D-07
    9.549978375504D-01 2.580000000000D+02 3.789695092126D-01-8.075693527908D-09
   -6.000249934494D-11 1.000000000000D+00 2.198000000000D+03 0.000000000000D+00
    2.000000000000D+00 0.000000000000D+00-1.350417733192D-08 8.400000000000D+01
    5.760180000000D+05 4.000000000000D+00
10 22  2 26 18  0  0.0-3.314721398056D-04-1.080024958355D-11 0.000000000000D+00
    8.500000000000D+01-1.234375000000D+02 3.977665685742D-09 2.510506215449D+00
   -6.383284926414D-06 7.538790698163D-03 7.806345820427D-06 5.153685958862D+03
    5.832000000000D+05-5.774199962616D-08-1.006601479895D+00-1.173466444016D-07
    9.724106998260D-01 2.354062500000D+02-2.507728722110D+00-7.776038188917D-09
    9.286101089098D-12 1.000000000000D+00 2.198000000000D+03 0.000000000000D+00
    2.000000000000D+00 0.000000000000D+00 2.328306436539D-09 8.500000000000D+01
    5.760180000000D+05 4.000000000000D+00
 1 22  2 26 18  0  0.0 4.217722453177D-04-9.322320693173D-12 0.000000000000D+00
    8.000000000000D+01-3.425000000000D+01 3.959093483564D-09-1.734988628555D+00
   -1.654028892517D-06 1.145039638504D-02 1.234933733940D-06 5.153670217514D+03
    5.832000000000D+05 1.508742570877D-07-2.039186576329D+00-1.043081283569D-07
    9.868667764481D-01 3.680000000000D+02 8.834173437069D-01-8.040692069956D-09
   -1.357199389945D-11 1.000000000000D+00 2.198000000000D+03 0.000000000000D+00
    2.000000000000D+00 0.000000000000D+00 5.122274160385D-09 8.000000000000D+01
    5.760180000000D+05 4.000000000000D+00
16 22  2 26 18  0  0.0-4.743542522192D-04-4.661160346586D-12 0.000000000000D+00
    5.100000000000D+01 4.365625000000D+01 4.350895517977D-09 1.376937741910D+00
    2.518296241760D-06 1.278095436282D-02 1.007132232189D-05 5.153611576080D+03
    5.832000000000D+05-1.564621925354D-07 2.227696179733D+00 1.545995473862D-07
    9.699640951493D-01 1.954062500000D+02 7.106422288499D-01-7.908186550570D-09
   -5.971677315759D-10 1.000000000000D+00 2.198000000000D+03 0.000000000000D+00
    2.000000000000D+00 0.000000000000D+00-1.024454832077D-08 5.100000000000D+01
    5.760180000000D+05 4.000000000000D+00
23 22  2 26 18  0  0.0-2.218876034021D-06-3.410605131648D-12 0.000000000000D+00
    1.500000000000D+02-1.159375000000D+02 4.066240803822D-09-2.468465184363D+00
   -5.939975380898D-06 1.997099490836D-03 7.411465048790D-06 5.153709808350D+03
    5.832000000000D+05-5.587935447693D-09-1.031520125719D+00 1.117587089539D-08
    9.674536063031D-01 2.418437500000D+02 2.981391976474D+00-7.892114452531D-09
    3.071556514086D-11 1.000000000000D+00 2.198000000000D+03 0.000000000000D+00
    2.000000000000D+00 0.000000000000D+00-8.381903171539D-09 9.180000000000D+02
    5.760180000000D+05 4.000000000000D+00
 3 22  2 26 18  0  0.0-1.394371502101D-04-1.750777300913D-11 0.000000000000D+00
    1.060000000000D+02-1.350625000000D+02 3.899805299687D-09-2.882758525641D+00
   -6.921589374542D-06 3.892286564223D-03 8.597970008850D-06 5.153680313110D+03
    5.832000000000D+05-3.539025783539D-08-1.003815251472D+00 2.235174179077D-08
    9.725886769766D-01 2.190000000000D+02 9.534642619908D-01-7.729607683472D-09
    3.464430021702D-11 1.000000000000D+00 2.198000000000D+03 0.000000000000D+00
    2.000000000000D+00 0.000000000000D+00 1.862645149231D-09 1.060000000000D+02
    5.760180000000D+05 4.000000000000D+00
